start=new Date('2022-08-27T00:00:00.000Z').valueOf();
sats=[{"EPOCH":"2022-08-26T22:00:00.999936","CLASSIFICATION_TYPE":"U","REF_FRAME":"TEME","MEAN_MOTION":"15.73172255","ECCENTRICITY":"0.00022870","OBJECT_TYPE":"PAYLOAD","APOAPSIS":"351.378","CENTER_NAME":"EARTH","MEAN_ELEMENT_THEORY":"SGP4","DECAY_DATE":null,"FILE":"3548620","SITE":"AFETR","MEAN_ANOMALY":"126.1888","ELEMENT_SET_NO":"999","PERIOD":"91.535","TIME_SYSTEM":"UTC","NORAD_CAT_ID":"53273","MEAN_MOTION_DOT":"0.00065974","SEMIMAJOR_AXIS":"6727.974","OBJECT_NAME":"STARLINK-4051","INCLINATION":"53.2166","TLE_LINE2":"2 53273  53.2166 238.1183 0002287  25.5268 126.1888 15.73172255  1304","GP_ID":"211080375","MEAN_MOTION_DDOT":"0.0000000000000","RA_OF_ASC_NODE":"238.1183","EPHEMERIS_TYPE":"0","OBJECT_ID":"2022-086AH","PERIAPSIS":"348.301","REV_AT_EPOCH":"130","RCS_SIZE":"LARGE","TLE_LINE1":"1 53273U 22086AH  22238.91667824  .00065974  00000-0  47133-3 0  9990","COUNTRY_CODE":"US","ARG_OF_PERICENTER":"25.5268","BSTAR":"0.00047133000000","LAUNCH_DATE":"2022-07-24"},{"TIME_SYSTEM":"UTC","PERIOD":"91.533","ELEMENT_SET_NO":"999","SITE":"AFETR","FILE":"3548620","DECAY_DATE":null,"MEAN_ANOMALY":"128.2869","MEAN_ELEMENT_THEORY":"SGP4","CENTER_NAME":"EARTH","APOAPSIS":"351.439","OBJECT_TYPE":"PAYLOAD","ECCENTRICITY":"0.00025060","REF_FRAME":"TEME","MEAN_MOTION":"15.73202377","CLASSIFICATION_TYPE":"U","EPOCH":"2022-08-26T22:00:00.999936","BSTAR":"-0.00004097500000","LAUNCH_DATE":"2022-07-24","ARG_OF_PERICENTER":"21.6146","COUNTRY_CODE":"US","TLE_LINE1":"1 53274U 22086AJ  22238.91667824 -.00006370  00000-0 -40975-4 0  9996","RCS_SIZE":"LARGE","PERIAPSIS":"348.067","OBJECT_ID":"2022-086AJ","REV_AT_EPOCH":"130","MEAN_MOTION_DDOT":"0.0000000000000","RA_OF_ASC_NODE":"238.1217","EPHEMERIS_TYPE":"0","GP_ID":"211081222","TLE_LINE2":"2 53274  53.2166 238.1217 0002506  21.6146 128.2869 15.73202377  1300","OBJECT_NAME":"STARLINK-4050","INCLINATION":"53.2166","MEAN_MOTION_DOT":"-0.00006370","SEMIMAJOR_AXIS":"6727.888","NORAD_CAT_ID":"53274"},{"TLE_LINE2":"2 53275  53.2167 238.1171 0003456  12.5439 139.7162 15.73190618  1307","GP_ID":"211080521","EPHEMERIS_TYPE":"0","RA_OF_ASC_NODE":"238.1171","MEAN_MOTION_DDOT":"0.0000000000000","NORAD_CAT_ID":"53275","SEMIMAJOR_AXIS":"6727.922","MEAN_MOTION_DOT":"0.00070764","INCLINATION":"53.2167","OBJECT_NAME":"STARLINK-4179","TLE_LINE1":"1 53275U 22086AK  22238.91667824  .00070764  00000-0  50447-3 0  9997","COUNTRY_CODE":"US","ARG_OF_PERICENTER":"12.5439","LAUNCH_DATE":"2022-07-24","BSTAR":"0.00050447000000","PERIAPSIS":"347.462","OBJECT_ID":"2022-086AK","REV_AT_EPOCH":"130","RCS_SIZE":"LARGE","OBJECT_TYPE":"PAYLOAD","ECCENTRICITY":"0.00034560","APOAPSIS":"352.112","CENTER_NAME":"EARTH","EPOCH":"2022-08-26T22:00:00.999936","CLASSIFICATION_TYPE":"U","MEAN_MOTION":"15.73190618","REF_FRAME":"TEME","ELEMENT_SET_NO":"999","PERIOD":"91.534","TIME_SYSTEM":"UTC","MEAN_ELEMENT_THEORY":"SGP4","MEAN_ANOMALY":"139.7162","FILE":"3548620","SITE":"AFETR","DECAY_DATE":null},{"EPOCH":"2022-08-26T22:00:00.999936","CLASSIFICATION_TYPE":"U","REF_FRAME":"TEME","MEAN_MOTION":"15.73169435","OBJECT_TYPE":"PAYLOAD","ECCENTRICITY":"0.00030610","APOAPSIS":"351.907","CENTER_NAME":"EARTH","MEAN_ELEMENT_THEORY":"SGP4","MEAN_ANOMALY":"135.9060","SITE":"AFETR","FILE":"3548620","DECAY_DATE":null,"ELEMENT_SET_NO":"999","PERIOD":"91.535","TIME_SYSTEM":"UTC","NORAD_CAT_ID":"53276","SEMIMAJOR_AXIS":"6727.982","MEAN_MOTION_DOT":"0.00070072","INCLINATION":"53.2171","OBJECT_NAME":"STARLINK-4174","TLE_LINE2":"2 53276  53.2171 238.1224 0003061  15.1845 135.9060 15.73169435  1302","GP_ID":"211081076","EPHEMERIS_TYPE":"0","RA_OF_ASC_NODE":"238.1224","MEAN_MOTION_DDOT":"0.0000000000000","REV_AT_EPOCH":"130","PERIAPSIS":"347.788","OBJECT_ID":"2022-086AL","RCS_SIZE":"LARGE","TLE_LINE1":"1 53276U 22086AL  22238.91667824  .00070072  00000-0  50010-3 0  9996","COUNTRY_CODE":"US","ARG_OF_PERICENTER":"15.1845","LAUNCH_DATE":"2022-07-24","BSTAR":"0.00050010000000"},{"ECCENTRICITY":"0.00025330","OBJECT_TYPE":"PAYLOAD","APOAPSIS":"351.552","CENTER_NAME":"EARTH","EPOCH":"2022-08-26T22:00:00.999936","CLASSIFICATION_TYPE":"U","MEAN_MOTION":"15.73169349","REF_FRAME":"TEME","ELEMENT_SET_NO":"999","PERIOD":"91.535","TIME_SYSTEM":"UTC","MEAN_ELEMENT_THEORY":"SGP4","MEAN_ANOMALY":"133.7931","SITE":"AFETR","FILE":"3548620","DECAY_DATE":null,"TLE_LINE2":"2 53277  53.2166 238.1135 0002533  20.3055 133.7931 15.73169349  1309","GP_ID":"211080793","EPHEMERIS_TYPE":"0","RA_OF_ASC_NODE":"238.1135","MEAN_MOTION_DDOT":"0.0000000000000","NORAD_CAT_ID":"53277","SEMIMAJOR_AXIS":"6727.983","MEAN_MOTION_DOT":"0.00068976","INCLINATION":"53.2166","OBJECT_NAME":"STARLINK-4178","TLE_LINE1":"1 53277U 22086AM  22238.91667824  .00068976  00000-0  49245-3 0  9995","COUNTRY_CODE":"US","ARG_OF_PERICENTER":"20.3055","LAUNCH_DATE":"2022-07-24","BSTAR":"0.00049245000000","PERIAPSIS":"348.143","REV_AT_EPOCH":"130","OBJECT_ID":"2022-086AM","RCS_SIZE":"LARGE"},{"NORAD_CAT_ID":"53278","MEAN_MOTION_DOT":"0.00071073","SEMIMAJOR_AXIS":"6727.928","INCLINATION":"53.2164","OBJECT_NAME":"STARLINK-4180","TLE_LINE2":"2 53278  53.2164 238.1147 0002421  18.4293 134.4415 15.73188568  1308","GP_ID":"211081386","MEAN_MOTION_DDOT":"0.0000000000000","EPHEMERIS_TYPE":"0","RA_OF_ASC_NODE":"238.1147","PERIAPSIS":"348.164","OBJECT_ID":"2022-086AN","REV_AT_EPOCH":"130","RCS_SIZE":"LARGE","COUNTRY_CODE":"US","TLE_LINE1":"1 53278U 22086AN  22238.91667824  .00071073  00000-0  50675-3 0  9997","ARG_OF_PERICENTER":"18.4293","BSTAR":"0.00050675000000","LAUNCH_DATE":"2022-07-24","EPOCH":"2022-08-26T22:00:00.999936","CLASSIFICATION_TYPE":"U","REF_FRAME":"TEME","MEAN_MOTION":"15.73188568","OBJECT_TYPE":"PAYLOAD","ECCENTRICITY":"0.00024210","APOAPSIS":"351.422","CENTER_NAME":"EARTH","MEAN_ELEMENT_THEORY":"SGP4","FILE":"3548620","DECAY_DATE":null,"SITE":"AFETR","MEAN_ANOMALY":"134.4415","ELEMENT_SET_NO":"999","PERIOD":"91.534","TIME_SYSTEM":"UTC"},{"PERIOD":"91.535","ELEMENT_SET_NO":"999","TIME_SYSTEM":"UTC","MEAN_ELEMENT_THEORY":"SGP4","MEAN_ANOMALY":"130.9994","SITE":"AFETR","FILE":"3548620","DECAY_DATE":null,"OBJECT_TYPE":"PAYLOAD","ECCENTRICITY":"0.00025770","CENTER_NAME":"EARTH","APOAPSIS":"351.576","CLASSIFICATION_TYPE":"U","EPOCH":"2022-08-26T22:00:00.999936","MEAN_MOTION":"15.73171249","REF_FRAME":"TEME","ARG_OF_PERICENTER":"22.4688","COUNTRY_CODE":"US","TLE_LINE1":"1 53280U 22086AQ  22238.91667824  .00040776  00000-0  29387-3 0  9992","LAUNCH_DATE":"2022-07-24","BSTAR":"0.00029387000000","RCS_SIZE":"LARGE","PERIAPSIS":"348.108","REV_AT_EPOCH":"130","OBJECT_ID":"2022-086AQ","TLE_LINE2":"2 53280  53.2167 238.1148 0002577  22.4688 130.9994 15.73171249  1301","EPHEMERIS_TYPE":"0","RA_OF_ASC_NODE":"238.1148","MEAN_MOTION_DDOT":"0.0000000000000","GP_ID":"211080938","NORAD_CAT_ID":"53280","INCLINATION":"53.2167","OBJECT_NAME":"STARLINK-4169","SEMIMAJOR_AXIS":"6727.977","MEAN_MOTION_DOT":"0.00040776"},{"MEAN_ELEMENT_THEORY":"SGP4","MEAN_ANOMALY":"145.9073","DECAY_DATE":null,"FILE":"3548620","SITE":"AFETR","PERIOD":"91.534","ELEMENT_SET_NO":"999","TIME_SYSTEM":"UTC","CLASSIFICATION_TYPE":"U","EPOCH":"2022-08-26T22:00:00.999936","MEAN_MOTION":"15.73185911","REF_FRAME":"TEME","OBJECT_TYPE":"PAYLOAD","ECCENTRICITY":"0.00030260","CENTER_NAME":"EARTH","APOAPSIS":"351.836","RCS_SIZE":"LARGE","PERIAPSIS":"347.764","OBJECT_ID":"2022-086AR","REV_AT_EPOCH":"130","ARG_OF_PERICENTER":"9.9563","COUNTRY_CODE":"US","TLE_LINE1":"1 53281U 22086AR  22238.91667824  .00027494  00000-0  19977-3 0  9999","LAUNCH_DATE":"2022-07-24","BSTAR":"0.00019977000000","NORAD_CAT_ID":"53281","INCLINATION":"53.2168","OBJECT_NAME":"STARLINK-4182","SEMIMAJOR_AXIS":"6727.935","MEAN_MOTION_DOT":"0.00027494","TLE_LINE2":"2 53281  53.2168 238.1107 0003026   9.9563 145.9073 15.73185911  1305","RA_OF_ASC_NODE":"238.1107","EPHEMERIS_TYPE":"0","MEAN_MOTION_DDOT":"0.0000000000000","GP_ID":"211080659"},{"REF_FRAME":"TEME","MEAN_MOTION":"15.73160285","CLASSIFICATION_TYPE":"U","EPOCH":"2022-08-26T22:00:00.999936","CENTER_NAME":"EARTH","APOAPSIS":"351.577","OBJECT_TYPE":"PAYLOAD","ECCENTRICITY":"0.00025320","FILE":"3548620","DECAY_DATE":null,"SITE":"AFETR","MEAN_ANOMALY":"130.0716","MEAN_ELEMENT_THEORY":"SGP4","TIME_SYSTEM":"UTC","PERIOD":"91.535","ELEMENT_SET_NO":"999","INCLINATION":"53.2169","OBJECT_NAME":"STARLINK-4164","MEAN_MOTION_DOT":"0.00054214","SEMIMAJOR_AXIS":"6728.008","NORAD_CAT_ID":"53282","MEAN_MOTION_DDOT":"0.0000000000000","RA_OF_ASC_NODE":"238.1135","EPHEMERIS_TYPE":"0","GP_ID":"211080376","TLE_LINE2":"2 53282  53.2169 238.1135 0002532  24.5879 130.0716 15.73160285  1308","RCS_SIZE":"LARGE","PERIAPSIS":"348.170","OBJECT_ID":"2022-086AS","REV_AT_EPOCH":"130","BSTAR":"0.00038883000000","LAUNCH_DATE":"2022-07-24","ARG_OF_PERICENTER":"24.5879","COUNTRY_CODE":"US","TLE_LINE1":"1 53282U 22086AS  22238.91667824  .00054214  00000-0  38883-3 0  9997"},{"TIME_SYSTEM":"UTC","ELEMENT_SET_NO":"999","PERIOD":"91.533","MEAN_ANOMALY":"136.3827","SITE":"AFETR","FILE":"3548620","DECAY_DATE":null,"MEAN_ELEMENT_THEORY":"SGP4","APOAPSIS":"351.409","CENTER_NAME":"EARTH","OBJECT_TYPE":"PAYLOAD","ECCENTRICITY":"0.00024860","MEAN_MOTION":"15.73208304","REF_FRAME":"TEME","EPOCH":"2022-08-26T22:00:00.999936","CLASSIFICATION_TYPE":"U","LAUNCH_DATE":"2022-07-24","BSTAR":"-0.00001814900000","COUNTRY_CODE":"US","TLE_LINE1":"1 53283U 22086AT  22238.91667824 -.00003169  00000-0 -18149-4 0  9997","ARG_OF_PERICENTER":"20.1135","PERIAPSIS":"348.064","REV_AT_EPOCH":"130","OBJECT_ID":"2022-086AT","RCS_SIZE":"LARGE","GP_ID":"211081223","EPHEMERIS_TYPE":"0","RA_OF_ASC_NODE":"238.1116","MEAN_MOTION_DDOT":"0.0000000000000","TLE_LINE2":"2 53283  53.2173 238.1116 0002486  20.1135 136.3827 15.73208304  1305","SEMIMAJOR_AXIS":"6727.871","MEAN_MOTION_DOT":"-0.00003169","INCLINATION":"53.2173","OBJECT_NAME":"STARLINK-4175","NORAD_CAT_ID":"53283"}];
